HIMAWARI-8              
1 40267U 14060A   23306.91203785 -.00000275  00000+0  00000+0 0  9992
2 40267   0.0239 138.0708 0000947 100.0561 272.7951  1.00270822 33163
